[{"OBJECT_NAME":"STARLINK-4690","OBJECT_ID":"2022-104S","EPOCH":"2026-03-09T17:35:37.261824","MEAN_MOTION":15.08838737,"ECCENTRICITY":0.00011973,"INCLINATION":53.2164,"RA_OF_ASC_NODE":238.7838,"ARG_OF_PERICENTER":92.2727,"MEAN_ANOMALY":267.8403,"EPHEMERIS_TYPE":0,"CLASSIFICATION_TYPE":"U","NORAD_CAT_ID":53604,"ELEMENT_SET_NO":999,"REV_AT_EPOCH":19569,"BSTAR":2.4406231e-5,"MEAN_MOTION_DOT":1.01e-6,"MEAN_MOTION_DDOT":0},{"OBJECT_NAME":"CZ-2D R\/B","OBJECT_ID":"2025-222C","EPOCH":"2026-03-09T11:30:40.430304","MEAN_MOTION":15.00214245,"ECCENTRICITY":0.0055472,"INCLINATION":34.9016,"RA_OF_ASC_NODE":128.5538,"ARG_OF_PERICENTER":301.6169,"MEAN_ANOMALY":57.9132,"EPHEMERIS_TYPE":0,"CLASSIFICATION_TYPE":"U","NORAD_CAT_ID":65853,"ELEMENT_SET_NO":999,"REV_AT_EPOCH":2424,"BSTAR":0.00024152549,"MEAN_MOTION_DOT":3.158e-5,"MEAN_MOTION_DDOT":0}]
